WILDBLUE-1              
1 29643U 06054A   16178.34904234 -.00000054  00000-0  00000+0 0  9990
2 29643   0.0387 102.5265 0001904 358.5046 188.3475  1.00271884 35016
AMC-18                  
1 29644U 06054B   16177.60545331 -.00000094  00000-0  00000+0 0  9992
2 29644   0.0215 317.0363 0002804 129.4356 300.7019  1.00270811 35022
MEASAT-3                
1 29648U 06056A   16177.85952450 -.00000246  00000-0  00000-0 0  9999
2 29648   0.0564 129.5570 0003615 349.4571 196.3404  1.00270486 13923
KIKU-8 (ETS-VIII)       
1 29656U 06059A   16178.00264449 -.00000247  00000-0  00000+0 0  9993
2 29656   4.9167  61.3011 0006187  24.5014 335.3866  1.00271614 34910
INSAT-4B                
1 30793U 07007A   16177.90604909 -.00000263  00000-0  00000+0 0  9996
2 30793   0.4127  89.7223 0001086 161.1608  83.2713  1.00271826 34038
SKYNET 5A               
1 30794U 07007B   16177.88313265 -.00000276  00000-0  00000-0 0  9991
2 30794   0.0673  15.1510 0003349  79.7708 232.6420  1.00270274 34178
ANIK F3                 
1 31102U 07009A   16178.41493772 -.00000006  00000-0  00000+0 0  9999
2 31102   0.0211   2.8749 0002156 100.5558 202.2054  1.00269007 33805
ASTRA 1L                
1 31306U 07016A   16177.68581537  .00000115  00000-0  00000+0 0  9998
2 31306   0.0617 315.5321 0001195  72.7504 152.0359  1.00272271 33508
GALAXY 17 (G-17)        
1 31307U 07016B   16178.28642373 -.00000180  00000-0  00000+0 0  9995
2 31307   0.0217  13.1941 0003459  74.2113 199.5505  1.00271884 33544
ZHONGXING-6B            
1 31800U 07031A   16177.90929634 -.00000367  00000-0  00000-0 0  9994
2 31800   0.0192  58.0337 0003070  38.9714 260.3190  1.00274411 32909
DIRECTV 10              
1 31862U 07032A   16175.52981316 -.00000104  00000-0  00000+0 0  9992
2 31862   0.0453 197.8678 0000475 227.4045 294.7359  1.00269911 32856
SPACEWAY 3              
1 32018U 07036A   16175.24754631 -.00000152  00000-0  00000+0 0  9990
2 32018   0.0469 176.1257 0000514 270.1934 179.6982  1.00271456 32564
BSAT-3A                 
1 32019U 07036B   16176.93518755 -.00000354  00000-0  00000+0 0  9997
2 32019   0.0646 236.5076 0002114 289.9469 193.5533  1.00276576 32522
INSAT-4CR               
1 32050U 07037A   16178.10928269 -.00000082  00000-0  00000+0 0  9997
2 32050   0.0504 285.8691 0003777 340.7444 121.3824  1.00271150 32328
OPTUS D2                
1 32252U 07044A   16177.91263765 -.00000188  00000-0  00000-0 0  9998
2 32252   0.0182   7.1315 0002996  87.2793 300.6098  1.00272110 32045
INTELSAT 11 (IS-11)     
1 32253U 07044B   16178.13845345 -.00000274  00000-0  00000+0 0  9999
2 32253   0.0341 229.4835 0002902 226.8632 185.1839  1.00271258 31993
STAR ONE C1             
1 32293U 07056A   16177.41961142 -.00000281  00000-0  00000+0 0  9998
2 32293   0.0184  20.2919 0002954  87.0227 252.7177  1.00268956 31577
SKYNET 5B               
1 32294U 07056B   16178.18888002  .00000137  00000-0  00000+0 0  9996
2 32294   0.0661   7.8358 0003485  84.9486 275.0287  1.00272674 31672
ASTRA 4A (SIRIUS 4)     
1 32299U 07057A   16177.81399704  .00000028  00000-0  00000-0 0  9997
2 32299   0.0138   3.1877 0002568  87.3931 121.6209  1.00271562 15176
HORIZONS-2              
1 32388U 07063B   16177.89683457 -.00000188  00000-0  00000-0 0  9990
2 32388   0.0154  42.6650 0003231  56.5661 222.9347  1.00272626 31321
THURAYA-3               
1 32404U 08001A   16177.98954633 -.00000306  00000-0  00000+0 0  9990
2 32404   4.2136 350.2409 0004691 103.7833 275.2711  1.00271665 31006
EXPRESS-AM33            
1 32478U 08003A   16177.53829750 -.00000285  00000-0  00000-0 0  9992
2 32478   0.0397 212.9164 0000435   9.8872 341.5699  1.00269976 31085
THOR 5                  
1 32487U 08006A   16178.07133663 -.00000014  00000-0  00000+0 0  9995
2 32487   0.0416 219.4122 0002437 241.5751 198.5597  1.00271431 30645
KIZUNA (WINDS)          
1 32500U 08007A   16178.41715994 -.00000264  00000-0  00000+0 0  9990
2 32500   0.0926  94.2312 0002378 354.6053 119.3018  1.00272187 30505
AMC-14                  
1 32708U 08011A   16177.89771494  .00000091  00000-0  00000+0 0  9990
2 32708  18.4566  68.3635 0042315   4.3667 182.8689  1.00273140 31569
DIRECTV 11              
1 32729U 08013A   16177.33193593 -.00000130  00000-0  00000+0 0  9997
2 32729   0.0437 177.6323 0004267 352.4796 124.0729  1.00272725 30399
ICO G1                  
1 32763U 08016A   16177.55286832 -.00000175  00000-0  00000+0 0  9990
2 32763   3.9856 350.8933 0003071 106.8496 282.5549  1.00272579 29931
VINASAT-1               
1 32767U 08018A   16175.87672926 -.00000331  00000-0  00000-0 0  9997
2 32767   0.0149 327.9886 0001610 146.0271 246.0043  1.00269030 30073
STAR ONE C2             
1 32768U 08018B   16176.43617522 -.00000268  00000-0  00000+0 0  9990
2 32768   0.0083 151.5138 0002112 334.6135 233.8922  1.00271211 30001
TIANLIAN 1-01           
1 32779U 08019A   16178.04881826 -.00000140  00000-0  10000-3 0  9996
2 32779   2.0832  77.7655 0031045 225.3207  68.9615  1.00267370 29930
AMOS-3                  
1 32794U 08022A   16178.07178803 -.00000039  00000-0  00000+0 0  9996
2 32794   0.0311 102.9622 0001952 317.5379 235.9772  1.00271236 29914
GALAXY 18 (G-18)        
1 32951U 08024A   16177.58031026  .00000021  00000-0  00000+0 0  9993
2 32951   0.0136  55.2567 0002864  43.7191 261.0582  1.00272129 29556
CHINASAT 9 (ZX 9)       
1 33051U 08028A   16177.81628392 -.00000253  00000-0  00000-0 0  9992
2 33051   0.0090   8.2962 0004175  93.4983 198.6645  1.00271597 29476
SKYNET 5C               
1 33055U 08030A   16177.37356894 -.00000144  00000-0  00000+0 0  9993
2 33055   0.0619 356.8506 0003705 104.7260 289.0187  1.00272511 29366
TURKSAT 3A              
1 33056U 08030B   16178.17823255  .00000141  00000-0  00000+0 0  9999
2 33056   0.0529 167.2687 0005012 297.3702 276.2449  1.00269342 29552
INTELSAT 25 (IS-25)     
1 33153U 08034A   16177.32678827 -.00000228  00000-0  00000+0 0  9997
2 33153   0.0235 356.2751 0002880  81.4695 282.2877  1.00269391 29094
BADR-6                  
1 33154U 08034B   16177.93610367  .00000139  00000-0  00000-0 0  9991
2 33154   0.0572  32.7433 0005548  45.4429 199.3018  1.00269024 14925
ECHOSTAR 11             
1 33207U 08035A   16177.54424449 -.00000061  00000-0  00000+0 0  9996
2 33207   0.0236   1.0976 0003004 108.4083 250.5266  1.00269908 29127
SUPERBIRD-C2            
1 33274U 08038A   16177.60864189 -.00000255  00000-0  00000+0 0  9994
2 33274   0.0099  10.5827 0001562  95.7776 170.8549  1.00273177 28841
AMC-21                  
1 33275U 08038B   16177.59174775  .00000032  00000-0  00000+0 0  9990
2 33275   0.0147   1.8078 0002899 103.0634 257.4090  1.00271810 28932
INMARSAT 4-F3           
1 33278U 08039A   16178.34139019 -.00000145  00000-0  00000+0 0  9996
2 33278   3.0184 357.9157 0002739  99.3182 202.5756  1.00272260 28738
NIMIQ 4                 
1 33373U 08044A   16178.32539189 -.00000226  00000-0  00000+0 0  9998
2 33373   0.0316  52.0085 0002257  39.3016 218.7268  1.00268555 28308
GALAXY 19 (G-19)        
1 33376U 08045A   16177.50827793 -.00000143  00000-0  00000+0 0  9990
2 33376   0.0202   6.5656 0003416  98.4582 255.0140  1.00268913 28306
VENESAT-1               
1 33414U 08055A   16178.28167964 -.00000243  00000-0  00000+0 0  9998
2 33414   0.0356 246.0872 0002043 253.0333 159.1207  1.00271129 28028
ASTRA 1M                
1 33436U 08057A   16177.74313818  .00000115  00000-0  00000+0 0  9992
2 33436   0.0138 345.4703 0005140 130.1038  85.4371  1.00270444 27947
CIEL-2                  
1 33453U 08063A   16178.41398264  .00000053  00000-0  00000+0 0  9992
2 33453   0.0109   5.4691 0002949  94.8051 194.8650  1.00271335 27640
EUTELSAT HOT BIRD 13C   
1 33459U 08065A   16177.20363435  .00000083  00000-0  00000+0 0  9991
2 33459   0.0569  58.2501 0005878  39.5024 262.3163  1.00270364 27711
EUTELSAT 48D            
1 33460U 08065B   16177.83015987  .00000119  00000-0  00000-0 0  9999
2 33460   0.0472 339.8250 0002012 132.6719 148.8480  1.00270371 27503
FENGYUN 2E              
1 33463U 08066A   16177.95321119 -.00000203  00000-0  00000-0 0  9998
2 33463   1.5236  62.6017 0002914 190.3985  91.1431  1.00265720 27552
EXPRESS-AM44            
1 33595U 09007A   16177.85336344 -.00000093  00000-0  00000+0 0  9991
2 33595   0.0117 239.8758 0000939 254.2457  76.5009  1.00272185 27022
NSS-9                   
1 33749U 09008A   16178.47077053  .00000066  00000-0  00000+0 0  9990
2 33749   0.0158 358.5834 0002263  99.6063 169.3617  1.00270524 27030
EUTELSAT HOT BIRD 13D   
1 33750U 09008B   16178.17792836  .00000151  00000-0  00000+0 0  9997
2 33750   0.0226   2.8703 0003903 138.2489 230.7451  1.00273842 27075
TELSTAR 11N             
1 34111U 09009A   16178.21402569 -.00000256  00000-0  00000+0 0  9993
2 34111   0.0210  19.9435 0002492  76.7046 217.6009  1.00267902 26889
EUTELSAT 10A            
1 34710U 09016A   16178.12722936  .00000063  00000-0  00000+0 0  9994
2 34710   0.0629  14.3902 0004888  81.6775 234.3956  1.00273283 26438
SES-7 (PROTOSTAR 2)     
1 34941U 09027A   16178.42493637 -.00000351  00000-0  00000+0 0  9999
2 34941   0.0468  70.1100 0000446 171.8882 294.1728  1.00272419 26095
MEASAT-3A               
1 35362U 09032A   16177.98330055 -.00000246  00000-0  00000+0 0  9990
2 35362   0.0208 251.3845 0001877 264.3460 204.2784  1.00271855 25718
GOES 14                 
1 35491U 09033A   16177.52974526 -.00000094  00000-0  00000-0 0  9993
2 35491   0.2637  98.9494 0003820 100.2697 160.7676  1.00272965 25634
SIRIUS FM-5             
1 35493U 09034A   16177.26074654 -.00000204  00000-0  00000+0 0  9992
2 35493   0.0108  93.3831 0000632 260.1498 288.0094  1.00272363 25432
TERRESTAR-1             
1 35496U 09035A   16176.48943261 -.00000057  00000-0  00000-0 0  9995
2 35496   3.1910 338.0484 0002538 120.5845 239.6249  1.00271944 25635
